{
  "norad_id": 57202,
  "name": "CSTP 1.1 (STC 1.1)",
  "history": [
    {
      "epoch": "2026-03-28T21:24:46.506816Z",
      "apogee_km": 518.0521643177208,
      "perigee_km": 503.7776354380594,
      "latitude_deg": -4.970796061357136e-05,
      "longitude_deg": -0.33730511402233504,
      "height_km": 508.3186630291174,
      "semi_major_axis_km": 6889.05189987789,
      "eccentricity": 0.00103603,
      "inclination_deg": 97.5208,
      "raan_deg": 147.1626,
      "arg_perigee_deg": 37.4298,
      "mean_anomaly_deg": 322.7655,
      "mean_motion_rev_day": 15.18320924
    },
    {
      "epoch": "2026-03-29T03:44:22.922304Z",
      "apogee_km": 518.0296877787405,
      "perigee_km": 503.77626406855416,
      "latitude_deg": 5.699491389368246e-05,
      "longitude_deg": -95.2367819936866,
      "height_km": 508.2564247229881,
      "semi_major_axis_km": 6889.039975923647,
      "eccentricity": 0.0010345,
      "inclination_deg": 97.5208,
      "raan_deg": 147.4247,
      "arg_perigee_deg": 36.6429,
      "mean_anomaly_deg": 323.5511,
      "mean_motion_rev_day": 15.18324866
    },
    {
      "epoch": "2026-03-30T03:27:53.876448Z",
      "apogee_km": 517.9249660160613,
      "perigee_km": 503.78186868923603,
      "latitude_deg": 8.910705848617525e-05,
      "longitude_deg": -91.10722322615624,
      "height_km": 508.0292816524713,
      "semi_major_axis_km": 6888.990417352648,
      "eccentricity": 0.0010265,
      "inclination_deg": 97.5204,
      "raan_deg": 148.4076,
      "arg_perigee_deg": 33.4979,
      "mean_anomaly_deg": 326.6903,
      "mean_motion_rev_day": 15.1834125
    },
    {
      "epoch": "2026-03-30T05:02:47.911200Z",
      "apogee_km": 517.9148832461369,
      "perigee_km": 503.788460855003,
      "latitude_deg": 9.17897302017312e-05,
      "longitude_deg": -114.8318254403391,
      "height_km": 508.02163504262325,
      "semi_major_axis_km": 6888.988672050569,
      "eccentricity": 0.00102529,
      "inclination_deg": 97.5203,
      "raan_deg": 148.4731,
      "arg_perigee_deg": 33.3073,
      "mean_anomaly_deg": 326.8805,
      "mean_motion_rev_day": 15.18341827
    },
    {
      "epoch": "2026-03-30T14:32:12.028128Z",
      "apogee_km": 517.8599926107427,
      "perigee_km": 503.8038781743462,
      "latitude_deg": -5.385557521487757e-05,
      "longitude_deg": 102.82116515262949,
      "height_km": 507.9420103845628,
      "semi_major_axis_km": 6888.968935392544,
      "eccentricity": 0.00102019,
      "inclination_deg": 97.5202,
      "raan_deg": 148.8663,
      "arg_perigee_deg": 31.9493,
      "mean_anomaly_deg": 328.2357,
      "mean_motion_rev_day": 15.18348352
    }
  ]
}